ONEWEB-0142             
1 47288U 20100AG  24109.54819301  .00000345  00000+0  92474-3 0  9999
2 47288  87.8960 147.8417 0002345  97.5487 262.5908 13.12445012161097
ONEWEB-0143             
1 47289U 20100AH  24109.57757946 -.00000083  00000+0 -26730-3 0  9992
2 47289  87.8959 147.8552 0002016  93.9132 266.2227 13.12440124161070
ONEWEB-0144             
1 47290U 20100AJ  24109.55059017  .00000390  00000+0  10497-2 0  9997
2 47290  87.8959 147.8450 0002405 101.2022 258.9377 13.12441462160992
ONEWEB-0145             
1 47291U 20100AK  24109.52199942 -.00000413  00000+0 -11841-2 0  9999
2 47291  87.8960 147.8743 0002188  97.5877 262.5500 13.12441756161180
ONEWEB-0146             
1 47292U 20100AL  24109.59346806 -.00000459  00000+0 -13101-2 0  9991
2 47292  87.8960 147.8421 0001641  86.7214 273.4102 13.12441981161103
ONEWEB-0147             
1 47293U 20100AM  24109.48388142  .00000384  00000+0  10317-2 0  9990
2 47293  87.8958 147.8608 0002093 106.4988 253.6370 13.12440301160985
ONEWEB-0115             
1 48042U 21025A   24109.51845153 -.00000203  00000+0 -58956-3 0  9998
2 48042  87.8886 117.4344 0001816  88.6081 271.5257 13.13468689149930
ONEWEB-0152             
1 48043U 21025B   24109.45498425  .00000193  00000+0  49488-3 0  9994
2 48043  87.8891 117.4426 0001896  90.9035 269.2311 13.13468061149884
